EUTELSAT 8 WEST B       
1 40875U 15039B   25349.91296006 -.00000043  00000+0  00000+0 0  9994
2 40875   0.0644 347.4174 0004273 279.3067 138.7664  1.00271688 37817
EUTELSAT 9B             
1 41310U 16005A   25349.87545044  .00000084  00000+0  00000+0 0  9991
2 41310   0.0525  68.3642 0004522 204.2583 136.3036  1.00271297 36278
EUTELSAT 65 WEST A      
1 41382U 16014A   25349.86266634 -.00000254  00000+0  00000+0 0  9994
2 41382   0.0595 322.2052 0002371 311.9400  55.9731  1.00270699 35693
EUTELSAT 117 WEST B     
1 41589U 16038B   25348.96395100  .00000009  00000+0  00000+0 0  9997
2 41589   0.0103 155.4943 0000120  36.5325 121.8783  1.00269355 34818
EUTELSAT 172B           
1 42741U 17029B   25349.87725316  .00000017  00000+0  00000+0 0  9995
2 42741   0.0460 150.6556 0000101 192.3692 229.5527  1.00273363 31890
EUTELSAT 7C             
1 44334U 19034B   25349.91590674  .00000071  00000+0  00000+0 0  9995
2 44334   0.0727 177.6823 0003089  70.5901 173.2556  1.00271300  4997
EUTELSAT 5 WEST B       
1 44624U 19067A   25349.05746103 -.00000022  00000+0  00000+0 0  9995
2 44624   0.0649 338.3897 0003217 286.2375 195.0282  1.00272503 22593
EUTELSAT KONNECT        
1 45027U 20005B   25349.87545044  .00000072  00000+0  00000+0 0  9992
2 45027   0.0713  96.4477 0001354 189.8624 120.8248  1.00270513 22490
